NORAD_CAT_ID,OBJECT_NAME,OBJECT_TYPE,EPOCH,MEAN_MOTION,ECCENTRICITY,INCLINATION,RA_OF_ASC_NODE,ARG_OF_PERICENTER,MEAN_ANOMALY,BSTAR,MEAN_MOTION_DOT,MEAN_MOTION_DDOT,TLE_LINE0,TLE_LINE1,TLE_LINE2,SEMIMAJOR_AXIS,PERIOD,APOGEE,PERIGEE,DECAYED
54053.0,STARLINK-5176,PAYLOAD,2022-10-25 16:00:00,15.89799275,0.0031683,53.2174,123.2777,56.0388,166.5552,-0.0043181,-0.01368309,0.00052979,0 STARLINK-5176,1 54053U 22136C   22298.66667824 -.01368309  52979-3 -43181-2 0  9995,2 54053  53.2174 123.2777 0031683  56.0388 166.5552 15.89799275  1307,6680.982,90.577,324.015,281.68,0.0
54053.0,STARLINK-5176,PAYLOAD,2022-10-25 22:00:01,15.89105769,0.0029105,53.2174,122.012,57.1009,156.9201,-0.0042646,-0.01295668,0.00047654,0 STARLINK-5176,1 54053U 22136C   22298.91668981 -.01295668  47654-3 -42646-2 0  9994,2 54053  53.2174 122.0120 0029105  57.1009 156.9201 15.89105769  1307,6682.926,90.617,324.241,285.34,0.0
54053.0,STARLINK-5176,PAYLOAD,2022-10-26 06:00:00,15.88275653,0.0025347,53.2174,120.3226,56.9411,264.5411,-0.0047092,-0.01358604,0.00051557,0 STARLINK-5176,1 54053U 22136C   22299.25001157 -.01358604  51557-3 -47092-2 0  9995,2 54053  53.2174 120.3226 0025347  56.9411 264.5411 15.88275653  1390,6685.254,90.664,324.064,290.1740000000001,0.0
54053.0,STARLINK-5176,PAYLOAD,2022-10-26 14:00:01,15.87418511,0.0021838,53.2174,118.6367,56.081,11.8945,-0.0049773999999999,-0.01365702,0.0005164,0 STARLINK-5176,1 54053U 22136C   22299.58334491 -.01365702  51640-3 -49774-2 0  9990,2 54053  53.2174 118.6367 0021838  56.0810  11.8945 15.87418511  1443,6687.66,90.713,324.13,294.921,0.0
54053.0,STARLINK-5176,PAYLOAD,2022-10-26 22:00:00,15.86527046,0.0018475,53.2176,116.9551,54.0353,119.4097,-0.0051049999999999,-0.01332959,0.00049006,0 STARLINK-5176,1 54053U 22136C   22299.91667824 -.01332959  49006-3 -51050-2 0  9997,2 54053  53.2176 116.9551 0018475  54.0353 119.4097 15.86527046  1495,6690.165,90.764,324.39,299.67,0.0
54053.0,STARLINK-5176,PAYLOAD,2022-10-27 14:00:01,15.84763534,0.0011957,53.2171,113.5927,52.7403,328.5733,-0.0054243,-0.01141087,0.0,0 STARLINK-5176,1 54053U 22136C   22300.58335648 -.01141087  00000-0 -54243-2 0  9994,2 54053  53.2171 113.5927 0011957  52.7403 328.5733 15.84763534  1301,6695.128000000002,90.865,324.998,308.987,0.0
54053.0,STARLINK-5176,PAYLOAD,2022-10-27 22:00:00,15.83897484,0.0009002,53.2174,111.918,48.4102,75.1599,-0.0056378,-0.01133776,0.0,0 STARLINK-5176,1 54053U 22136C   22300.91667824 -.01133776  00000-0 -56378-2 0  9992,2 54053  53.2174 111.9180 0009002  48.4102  75.1599 15.83897484  1309,6697.568,90.915,325.462,313.404,0.0
54053.0,STARLINK-5176,PAYLOAD,2022-10-28 08:00:01,15.82846981,0.0004551,53.2174,109.8222,31.7961,308.2731,-0.0062609,-0.01207565,0.0,0 STARLINK-5176,1 54053U 22136C   22301.33335648 -.01207565  00000-0 -62609-2 0  9997,2 54053  53.2174 109.8222 0004551  31.7961 308.2731 15.82846981  1723,6700.531,90.975,325.445,319.347,0.0
54053.0,STARLINK-5176,PAYLOAD,2022-10-28 14:00:01,15.82196705,0.000304,53.2174,108.5684,6.803,318.3504,-0.006474,-0.01209245,0.0,0 STARLINK-5176,1 54053U 22136C   22301.58335648 -.01209245  00000-0 -64740-2 0  9999,2 54053  53.2174 108.5684 0003040   6.8030 318.3504 15.82196705  1309,6702.3669999999975,91.013,326.269,322.194,0.0
54053.0,STARLINK-5176,PAYLOAD,2022-10-28 22:00:01,15.81301682,0.0003548,53.2173,106.8999,299.7427,124.6182,-0.0064575,-0.01162384,0.0,0 STARLINK-5176,1 54053U 22136C   22301.91668981 -.01162384  00000-0 -64575-2 0  9993,2 54053  53.2173 106.8999 0003548 299.7427 124.6182 15.81301682  1305,6704.896,91.064,329.139,324.382,0.0
54053.0,STARLINK-5176,PAYLOAD,2022-10-29 12:00:00,15.79737798,0.0006572,53.2171,103.9793,271.3567,234.0551,-0.0065941,-0.01111961,0.0,0 STARLINK-5176,1 54053U 22136C   22302.50001157 -.01111961  00000-0 -65941-2 0  9998,2 54053  53.2171 103.9793 0006572 271.3567 234.0551 15.79737798  1308,6709.32,91.154,335.594,326.776,0.0
54053.0,STARLINK-5176,PAYLOAD,2022-10-29 22:00:01,15.78667792,0.0003168,53.2173,101.9011,279.7965,75.9197,-0.0070161,-0.01122559,0.0,0 STARLINK-5176,1 54053U 22136C   22302.91668981 -.01122559  00000-0 -70161-2 0  9992,2 54053  53.2173 101.9011 0003168 279.7965  75.9197 15.78667792  1306,6712.351,91.216,336.343,332.09,0.0
54053.0,STARLINK-5176,PAYLOAD,2022-10-30 00:00:00,15.785213,0.0002145,53.2172,101.4847,287.3388,182.1369,-0.007795,-0.01225014,0.0,0 STARLINK-5176,1 54053U 22136C   22303.00001157 -.01225014  00000-0 -77950-2 0  9992,2 54053  53.2172 101.4847 0002145 287.3388 182.1369 15.78521300  1985,6712.767,91.225,336.071,333.19199999999995,0.0
54053.0,STARLINK-5176,PAYLOAD,2022-10-30 14:00:01,15.76972366,0.0001748,53.2175,98.5777,260.5319,284.1137,-0.0080185,-0.0118024,0.0,0 STARLINK-5176,1 54053U 22136C   22303.58334491 -.01180240  00000-0 -80185-2 0  9990,2 54053  53.2175  98.5777 0001748 260.5319 284.1137 15.76972366  1303,6717.161,91.314,340.201,337.852,0.0
54053.0,STARLINK-5176,PAYLOAD,2022-10-30 22:00:01,15.76076106,0.0005526,53.2172,96.9215,270.4735,7.189,-0.0079788,-0.01136156,0.0,0 STARLINK-5176,1 54053U 22136C   22303.91668981 -.01136156  00000-0 -79788-2 0  9995,2 54053  53.2172  96.9215 0005526 270.4735   7.1890 15.76076106  1305,6719.708000000001,91.366,345.286,337.8590000000001,0.0
54053.0,STARLINK-5176,PAYLOAD,2022-10-31 14:00:01,15.74345199,0.0001262999999999,53.2173,93.6112,302.8734,157.4612,-0.0082395,-0.01089688,0.0,0 STARLINK-5176,1 54053U 22136C   22304.58334491 -.01089688  00000-0 -82395-2 0  9990,2 54053  53.2173  93.6112 0001263 302.8734 157.4612 15.74345199  1309,6724.632,91.467,347.346,345.648,0.0
54053.0,STARLINK-5176,PAYLOAD,2022-10-31 22:00:01,15.73456105,7.099999999999999e-05,53.2172,91.9612,42.6334,147.5836,-0.0026934,-0.00366585,0.0,0 STARLINK-5176,1 54053U 22136C   22304.91668981 -.00366585  00000-0 -26934-2 0  9991,2 54053  53.2172  91.9612 0000710  42.6334 147.5836 15.73456105  2280,6727.165,91.518,349.5080000000001,348.552,0.0
54053.0,STARLINK-5176,PAYLOAD,2022-11-01 14:00:01,15.73281587,0.0001237,53.2162,88.6652,55.4736,312.5039,-0.00036516,-0.00051732,0.0,0 STARLINK-5176,1 54053U 22136C   22305.58334491 -.00051732  00000-0 -36516-3 0  9994,2 54053  53.2162  88.6652 0001237  55.4736 312.5039 15.73281587  2390,6727.663000000001,91.528,350.36,348.695,0.0
54053.0,STARLINK-5176,PAYLOAD,2022-11-01 22:00:00,15.73246022,0.0001449,53.2156,87.0164,50.2967,46.6647,0.00042634,0.00059759,0.0,0 STARLINK-5176,1 54053U 22136C   22305.91667824  .00059759  00000-0  42634-3 0  9993,2 54053  53.2156  87.0164 0001449  50.2967  46.6647 15.73246022  1303,6727.764,91.531,350.60400000000016,348.654,0.0
54053.0,STARLINK-5176,PAYLOAD,2022-11-02 06:00:00,15.73254755,0.0001157,53.2162,85.3633,55.3384,130.6441,0.00017115,0.00023523,0.0,0 STARLINK-5176,1 54053U 22136C   22306.25001157  .00023523  00000-0  17115-3 0  9998,2 54053  53.2162  85.3633 0001157  55.3384 130.6441 15.73254755  2496,6727.739000000001,91.53,350.38199999999995,348.826,0.0
54053.0,STARLINK-5176,PAYLOAD,2022-11-02 14:00:01,15.7327144,0.0001302,53.217,83.7133,57.6097,217.3878,-0.0015065,-0.00207549,0.0,0 STARLINK-5176,1 54053U 22136C   22306.58334491 -.00207549  00000-0 -15065-2 0  9999,2 54053  53.2170  83.7133 0001302  57.6097 217.3878 15.73271440  2554,6727.691999999999,91.529,350.432,348.681,0.0
54053.0,STARLINK-5176,PAYLOAD,2022-11-02 22:00:00,15.73203063,0.000149,53.2158,82.0673,40.7551,323.1387,-0.0002444,-0.00034783,0.0,0 STARLINK-5176,1 54053U 22136C   22306.91667824 -.00034783  00000-0 -24440-3 0  9991,2 54053  53.2158  82.0673 0001490  40.7551 323.1387 15.73203063  2600,6727.886,91.533,350.754,348.749,0.0
54053.0,STARLINK-5176,PAYLOAD,2022-11-03 08:00:01,15.73215923,0.0001484,53.2159,80.0031,50.9518,154.1788,0.00093512,0.00132803,0.0,0 STARLINK-5176,1 54053U 22136C   22307.33334491  .00132803  00000-0  93512-3 0  9995,2 54053  53.2159  80.0031 0001484  50.9518 154.1788 15.73215923  2678,6727.85,91.532,350.713,348.716,0.0
54053.0,STARLINK-5176,PAYLOAD,2022-11-03 14:00:01,15.73311965,0.000161,53.2157,78.7674,44.5128,137.3451,-0.0003138,-0.0004464,0.0,0 STARLINK-5176,1 54053U 22136C   22307.58334491 -.00044640  00000-0 -31380-3 0  9990,2 54053  53.2157  78.7674 0001610  44.5128 137.3451 15.73311965  2707,6727.576,91.527,350.524,348.358,0.0
54053.0,STARLINK-5176,PAYLOAD,2022-11-03 22:00:00,15.73314029,0.0001655,53.2151,77.118,37.8733,233.0307,-0.00051268,-0.0007231,0.0,0 STARLINK-5176,1 54053U 22136C   22307.91667824 -.00072310  00000-0 -51268-3 0  9998,2 54053  53.2151  77.1180 0001655  37.8733 233.0307 15.73314029  1305,6727.57,91.527,350.5490000000001,348.32199999999995,0.0
54053.0,STARLINK-5176,PAYLOAD,2022-11-04 14:00:01,15.73215218,0.0001636,53.2159,73.8185,35.3804,53.5431,-5.977e-05,-9.006e-05,0.0,0 STARLINK-5176,1 54053U 22136C   22308.58334491 -.00009006  00000-0 -59770-4 0  9992,2 54053  53.2159  73.8185 0001636  35.3804  53.5431 15.73215218  1305,6727.852,91.532,350.81699999999995,348.616,0.0
54053.0,STARLINK-5176,PAYLOAD,2022-11-04 22:00:01,15.73212634,0.0001705,53.2157,72.1689,29.7626,148.0945,-0.00061204,-0.00085697,0.0,0 STARLINK-5176,1 54053U 22136C   22308.91668981 -.00085697  00000-0 -61204-3 0  9997,2 54053  53.2157  72.1689 0001705  29.7626 148.0945 15.73212634  2917,6727.859,91.532,350.871,348.577,0.0
54053.0,STARLINK-5176,PAYLOAD,2022-11-05 14:00:01,15.73084359,0.0001773,53.2157,68.87,27.4448,328.1315,0.00040328,0.00056077,0.0,0 STARLINK-5176,1 54053U 22136C   22309.58335648  .00056077  00000-0  40328-3 0  9994,2 54053  53.2157  68.8700 0001773  27.4448 328.1315 15.73084359  1300,6728.225,91.54,351.283,348.897,0.0
54053.0,STARLINK-5176,PAYLOAD,2022-11-05 22:00:01,15.73273796,0.000207,53.2156,67.2191,28.7761,55.7262,-0.0012011,-0.00166441,0.0,0 STARLINK-5176,1 54053U 22136C   22309.91668981 -.00166441  00000-0 -12011-2 0  9996,2 54053  53.2156  67.2191 0002070  28.7761  55.7262 15.73273796  3074,6727.685,91.529,350.94199999999995,348.157,0.0
